NORAD_CAT_ID,OBJECT_NAME,OBJECT_TYPE,EPOCH,MEAN_MOTION,ECCENTRICITY,INCLINATION,RA_OF_ASC_NODE,ARG_OF_PERICENTER,MEAN_ANOMALY,BSTAR,MEAN_MOTION_DOT,MEAN_MOTION_DDOT,TLE_LINE0,TLE_LINE1,TLE_LINE2,SEMIMAJOR_AXIS,PERIOD,APOGEE,PERIGEE,DECAYED
53715.0,STARLINK-4686,PAYLOAD,2023-06-17 01:57:38,15.08853651,0.0001201,53.218,47.7838,94.0154,266.0975,0.00017123,2.439e-05,0.0,0 STARLINK-4686,1 53715U 22107R   23168.08169941  .00002439  00000-0  17123-3 0  9996,2 53715  53.2180  47.7838 0001201  94.0154 266.0975 15.08853651 43505,6917.839,95.437,540.534,538.873,0.0
53715.0,STARLINK-4686,PAYLOAD,2023-06-17 16:16:08,15.08826138,0.0001047,53.2169,45.1079,95.1962,264.9149,-0.00025104,-4.279e-05,0.0,0 STARLINK-4686,1 53715U 22107R   23168.67787971 -.00004279  00000-0 -25104-3 0  9994,2 53715  53.2169  45.1079 0001047  95.1962 264.9149 15.08826138 43597,6917.923,95.438,540.512,539.063,0.0
53715.0,STARLINK-4686,PAYLOAD,2023-06-18 08:10:00,15.08835305,0.0001052,53.2172,42.1349,96.0756,264.0356,-4.319e-05,-9.75e-06,0.0,0 STARLINK-4686,1 53715U 22107R   23169.34027921 -.00000975  00000-0 -43190-4 0  9996,2 53715  53.2172  42.1349 0001052  96.0756 264.0356 15.08835305 43693,6917.895,95.438,540.488,539.032,0.0
53715.0,STARLINK-4686,PAYLOAD,2023-06-18 17:42:18,15.08842162,0.0001017,53.2172,40.3503,93.6052,266.5057,0.00022526,3.299e-05,0.0,0 STARLINK-4686,1 53715U 22107R   23169.73771914  .00003299  00000-0  22526-3 0  9996,2 53715  53.2172  40.3503 0001017  93.6052 266.5057 15.08842162 44211,6917.874,95.437,540.442,539.035,0.0
53715.0,STARLINK-4686,PAYLOAD,2023-06-19 00:03:51,15.08852487,9.78e-05,53.217,39.1611,94.9287,265.1817,0.0006213,9.617e-05,0.0,0 STARLINK-4686,1 53715U 22107R   23170.00267814  .00009617  00000-0  62130-3 0  9992,2 53715  53.2170  39.1611 0000978  94.9287 265.1817 15.08852487 43796,6917.842,95.437,540.384,539.031,0.0
53715.0,STARLINK-4686,PAYLOAD,2023-06-19 08:00:47,15.08851157,9.36e-05,53.217,37.6743,94.0458,266.0641,0.00052076,8.012e-05,0.0,0 STARLINK-4686,1 53715U 22107R   23170.33387873  .00008012  00000-0  52076-3 0  9992,2 53715  53.2170  37.6743 0000936  94.0458 266.0641 15.08851157 43844,6917.846,95.437,540.359,539.064,0.0
53715.0,STARLINK-4686,PAYLOAD,2023-06-19 17:33:05,15.08841807,9.72e-05,53.2168,35.8905,97.9083,262.202,-8.4083e-05,-1.626e-05,0.0,0 STARLINK-4686,1 53715U 22107R   23170.73131870 -.00001626  00000-0 -84083-4 0  9990,2 53715  53.2168  35.8905 0000972  97.9083 262.2020 15.08841807 44365,6917.875,95.437,540.412,539.067,0.0
53715.0,STARLINK-4686,PAYLOAD,2023-06-20 01:30:01,15.08849061,0.000101,53.2168,34.4038,91.5335,268.5773,0.0002253,3.301e-05,0.0,0 STARLINK-4686,1 53715U 22107R   23171.06251673  .00003301  00000-0  22530-3 0  9999,2 53715  53.2168  34.4038 0001010  91.5335 268.5773 15.08849061 43959,6917.853,95.437,540.416,539.019,0.0
53715.0,STARLINK-4686,PAYLOAD,2023-06-20 07:51:34,15.08839766,0.0001264,53.2173,33.2154,94.3046,265.809,4.6242e-05,4.48e-06,0.0,0 STARLINK-4686,1 53715U 22107R   23171.32748086  .00000448  00000-0  46242-4 0  9993,2 53715  53.2173  33.2154 0001264  94.3046 265.8090 15.08839766 43999,6917.881,95.438,540.621,538.872,0.0
53715.0,STARLINK-4686,PAYLOAD,2023-06-20 20:34:39,15.08846163,9.66e-05,53.2169,30.8352,92.9445,267.1657,5.7755e-05,6.32e-06,0.0,0 STARLINK-4686,1 53715U 22107R   23171.85739705  .00000632  00000-0  57755-4 0  9995,2 53715  53.2169  30.8352 0000966  92.9445 267.1657 15.08846163 44536,6917.862,95.437,540.395,539.058,0.0
53715.0,STARLINK-4686,PAYLOAD,2023-06-20 23:45:25,15.08850388,9.67e-05,53.217,30.2403,92.9105,267.1997,0.00011693,1.574e-05,0.0,0 STARLINK-4686,1 53715U 22107R   23171.98987429  .00001574  00000-0  11693-3 0  9993,2 53715  53.2170  30.2403 0000967  92.9105 267.1997 15.08850388 44095,6917.849,95.437,540.383,539.045,0.0
53715.0,STARLINK-4686,PAYLOAD,2023-06-21 18:50:03,15.08837418,9.71e-05,53.217,26.6716,88.6217,271.4886,4.7625e-05,4.7e-06,0.0,0 STARLINK-4686,1 53715U 22107R   23172.78476130  .00000470  00000-0  47625-4 0  9993,2 53715  53.2170  26.6716 0000971  88.6217 271.4886 15.08837418 44210,6917.888,95.438,540.425,539.082,0.0
53715.0,STARLINK-4686,PAYLOAD,2023-06-21 20:25:26,15.08843419,9.91e-05,53.2166,26.3729,102.3511,257.7592,4.7698e-05,4.72e-06,0.0,0 STARLINK-4686,1 53715U 22107R   23172.85099806  .00000472  00000-0  47698-4 0  9994,2 53715  53.2166  26.3729 0000991 102.3511 257.7592 15.08843419 44689,6917.87,95.437,540.42,539.049,0.0
53715.0,STARLINK-4686,PAYLOAD,2023-06-21 23:36:12,15.088462,9.8e-05,53.2166,25.7785,94.7072,265.4032,0.00011417,1.53e-05,0.0,0 STARLINK-4686,1 53715U 22107R   23172.98347686  .00001530  00000-0  11417-3 0  9995,2 53715  53.2166  25.7785 0000980  94.7072 265.4032 15.08846200 44246,6917.861,95.437,540.404,539.048,0.0
53715.0,STARLINK-4686,PAYLOAD,2023-06-22 07:33:08,15.08834386,0.0001024,53.2171,24.2894,83.916,276.1949,-1.9378e-05,-5.96e-06,0.0,0 STARLINK-4686,1 53715U 22107R   23173.31468364 -.00000596  00000-0 -19378-4 0  9998,2 53715  53.2171  24.2894 0001024  83.9160 276.1949 15.08834386 44298,6917.898,95.438,540.471,539.054,0.0
53715.0,STARLINK-4686,PAYLOAD,2023-06-22 23:26:59,15.08843597,0.0001019,53.2172,21.3175,94.3694,265.7414,9.1909e-05,1.175e-05,0.0,0 STARLINK-4686,1 53715U 22107R   23173.97708057  .00001175  00000-0  91909-4 0  9998,2 53715  53.2172  21.3175 0001019  94.3694 265.7414 15.08843597 44397,6917.869,95.437,540.439,539.029,0.0
53715.0,STARLINK-4686,PAYLOAD,2023-06-24 00:53:09,15.08853651,0.0001052,53.2181,16.5591,91.8227,268.2886,0.00024006,3.536e-05,0.0,0 STARLINK-4686,1 53715U 22107R   23175.03691674  .00003536  00000-0  24006-3 0  9999,2 53715  53.2181  16.5591 0001052  91.8227 268.2886 15.08853651 44557,6917.839,95.437,540.431,538.976,0.0
53715.0,STARLINK-4686,PAYLOAD,2023-06-24 16:47:01,15.08842236,0.0001062,53.218,13.5864,93.9915,266.1198,0.00014886,2.082e-05,0.0,0 STARLINK-4686,1 53715U 22107R   23175.69932430  .00002082  00000-0  14886-3 0  9999,2 53715  53.2180  13.5864 0001062  93.9915 266.1198 15.08842236 44655,6917.874,95.437,540.473,539.004,0.0
53715.0,STARLINK-4686,PAYLOAD,2023-06-25 16:37:48,15.08840429,0.0001061,53.2169,9.1279,85.8526,274.2587,0.00012976,1.778e-05,0.0,0 STARLINK-4686,1 53715U 22107R   23176.69292619  .00001778  00000-0  12976-3 0  9997,2 53715  53.2169   9.1279 0001061  85.8526 274.2587 15.08840429 44801,6917.879,95.438,540.478,539.01,0.0
53715.0,STARLINK-4686,PAYLOAD,2023-06-26 16:28:36,15.08831892,0.0001016,53.2168,4.6676,93.7768,266.334,-4.3075e-05,-9.73e-06,0.0,0 STARLINK-4686,1 53715U 22107R   23177.68653056 -.00000973  00000-0 -43075-4 0  9996,2 53715  53.2168   4.6676 0001016  93.7768 266.3340 15.08831892 44956,6917.905,95.438,540.473,539.067,0.0
53715.0,STARLINK-4686,PAYLOAD,2023-06-27 19:30:09,15.0884443,9.62e-05,53.2169,359.6125,87.3168,272.7934,0.00018401,2.642e-05,0.0,0 STARLINK-4686,1 53715U 22107R   23178.81260773  .00002642  00000-0  18401-3 0  9999,2 53715  53.2169 359.6125 0000962  87.3168 272.7934 15.08844430 45123,6917.867,95.437,540.397,539.066,0.0
53715.0,STARLINK-4686,PAYLOAD,2023-06-28 05:02:28,15.08836915,9.45e-05,53.2163,357.829,91.801,268.309,2.1384e-05,5.3e-07,0.0,0 STARLINK-4686,1 53715U 22107R   23179.21005007  .00000053  00000-0  21384-4 0  9990,2 53715  53.2163 357.8290 0000945  91.8010 268.3090 15.08836915 45186,6917.89,95.438,540.409,539.101,0.0
53715.0,STARLINK-4686,PAYLOAD,2023-06-28 22:31:42,15.08847418,9.82e-05,53.2173,354.5568,84.8056,275.3048,0.00019204,2.77e-05,0.0,0 STARLINK-4686,1 53715U 22107R   23179.93868679  .00002770  00000-0  19204-3 0  9996,2 53715  53.2173 354.5568 0000982  84.8056 275.3048 15.08847418 45295,6917.858,95.437,540.402,539.043,0.0
53715.0,STARLINK-4686,PAYLOAD,2023-06-29 11:14:48,15.08837743,0.0001127,53.2167,352.1773,85.5351,274.577,3.6631e-05,2.95e-06,0.0,0 STARLINK-4686,1 53715U 22107R   23180.46861309  .00000295  00000-0  36631-4 0  9993,2 53715  53.2167 352.1773 0001127  85.5351 274.5770 15.08837743 45370,6917.887,95.438,540.532,538.973,0.0
53715.0,STARLINK-4686,PAYLOAD,2023-06-30 15:51:44,15.0884351,0.0001056,53.2167,346.8258,79.1201,280.991,0.00020146,2.92e-05,0.0,0 STARLINK-4686,1 53715U 22107R   23181.66093198  .00002920  00000-0  20146-3 0  9999,2 53715  53.2167 346.8258 0001056  79.1201 280.9910 15.08843510 45558,6917.87,95.437,540.465,539.004,0.0
53715.0,STARLINK-4686,PAYLOAD,2023-07-01 17:17:54,15.08844513,0.0001246,53.2154,342.0651,90.2669,269.8466,0.00013642,1.884e-05,0.0,0 STARLINK-4686,1 53715U 22107R   23182.72077089  .00001884  00000-0  13642-3 0  9999,2 53715  53.2154 342.0651 0001246  90.2669 269.8466 15.08844513 45716,6917.867,95.437,540.594,538.87,0.0
53715.0,STARLINK-4686,PAYLOAD,2023-07-02 10:47:09,15.08839153,0.0001088,53.2173,338.7968,86.1268,273.9848,4.3085e-05,3.98e-06,0.0,0 STARLINK-4686,1 53715U 22107R   23183.44941352  .00000398  00000-0  43085-4 0  9996,2 53715  53.2173 338.7968 0001088  86.1268 273.9848 15.08839153 45829,6917.883,95.438,540.501,538.995,0.0
53715.0,STARLINK-4686,PAYLOAD,2023-07-03 16:59:28,15.08841129,9.82e-05,53.2186,333.1483,91.4922,268.6182,0.00010707,1.417e-05,0.0,0 STARLINK-4686,1 53715U 22107R   23184.70797213  .00001417  00000-0  10707-3 0  9998,2 53715  53.2186 333.1483 0000982  91.4922 268.6182 15.08841129 46012,6917.877,95.437,540.421,539.063,0.0
53715.0,STARLINK-4686,PAYLOAD,2023-07-04 16:50:16,15.08839762,9.62e-05,53.2183,328.6877,93.3158,266.7944,6.6718e-05,7.74e-06,0.0,0 STARLINK-4686,1 53715U 22107R   23185.70157519  .00000774  00000-0  66718-4 0  9997,2 53715  53.2183 328.6877 0000962  93.3158 266.7944 15.08839762 46166,6917.881,95.438,540.412,539.081,0.0
53715.0,STARLINK-4686,PAYLOAD,2023-07-05 15:05:40,15.08836759,8.55e-05,53.2188,324.5246,83.1402,276.9688,4.8391e-05,4.82e-06,0.0,0 STARLINK-4686,1 53715U 22107R   23186.62893929  .00000482  00000-0  48391-4 0  9994,2 53715  53.2188 324.5246 0000855  83.1402 276.9688 15.08836759 46303,6917.89,95.438,540.347,539.164,0.0
